{"type": "FeatureCollection", "features": [ {"type": "Feature", "properties": {"norad_id": 40938, "name": "BEIDOU-3S IGSO-2S (C56)", "group": "gnss", "lat": -34.393621267879226, "lon": 116.6860070212941, "alt_km": 35591.39141952152, "timestamp": "2025-12-13T20:38:51.246229+00:00", "meta": {"OBJECT_NAME": "BEIDOU-3S IGSO-2S (C56)", "OBJECT_ID": "2015-053A", "EPOCH": "2025-12-12T17:40:22.230624", "MEAN_MOTION": 1.00269795, "ECCENTRICITY": 0.00608697, "INCLINATION": 49.5105, "RA_OF_ASC_NODE": 261.0048, "ARG_OF_PERICENTER": 188.8005, "MEAN_ANOMALY": 352.9764, "EPHEMERIS_TYPE": 0, "CLASSIFICATION_TYPE": "U", "NORAD_CAT_ID": 40938, "ELEMENT_SET_NO": 999, "REV_AT_EPOCH": 3748, "BSTAR": 0, "MEAN_MOTION_DOT": -1.58e-06, "MEAN_MOTION_DDOT": 0}, "tle": {"line1": "1 40938U 15053A   25346.73636841 -.00000158  00000+0  00000+0 0  9999", "line2": "2 40938  49.5105 261.0048 0060869 188.8005 352.9764  1.00269795 37487"}}, "geometry": {"type": "Point", "coordinates": [116.6860070212941, -34.393621267879226]}}, {"type": "Feature", "properties": {"norad_id": 41019, "name": "GPS BIIF-11 (PRN 10)", "group": "gnss", "lat": 30.82647616102757, "lon": 60.9242375399889, "alt_km": 20466.30936591938, "timestamp": "2025-12-13T20:38:51.246241+00:00", "meta": {"OBJECT_NAME": "GPS BIIF-11 (PRN 10)", "OBJECT_ID": "2015-062A", "EPOCH": "2025-12-12T19:26:17.021472", "MEAN_MOTION": 2.00567154, "ECCENTRICITY": 0.01108376, "INCLINATION": 56.8322, "RA_OF_ASC_NODE": 37.9995, "ARG_OF_PERICENTER": 229.9471, "MEAN_ANOMALY": 129.1248, "EPHEMERIS_TYPE": 0, "CLASSIFICATION_TYPE": "U", "NORAD_CAT_ID": 41019, "ELEMENT_SET_NO": 999, "REV_AT_EPOCH": 7409, "BSTAR": 0, "MEAN_MOTION_DOT": -9.6e-07, "MEAN_MOTION_DDOT": 0}, "tle": {"line1": "1 41019U 15062A   25346.80991923 -.00000096  00000+0  00000+0 0  9994", "line2": "2 41019  56.8322  37.9995 0110837 229.9471 129.1248  2.00567154 74096"}}, "geometry": {"type": "Point", "coordinates": [60.9242375399889, 30.82647616102757]}}, {"type": "Feature", "properties": {"norad_id": 41028, "name": "GSAT-15 (GAGAN/PRN 139)", "group": "gnss", "lat": -0.019205690527264233, "lon": 125.96065757102046, "alt_km": 35788.97967740406, "timestamp": "2025-12-13T20:38:51.246254+00:00", "meta": {"OBJECT_NAME": "GSAT-15 (GAGAN/PRN 139)", "OBJECT_ID": "2015-065A", "EPOCH": "2025-12-13T03:37:05.778912", "MEAN_MOTION": 1.00271881, "ECCENTRICITY": 0.00028737, "INCLINATION": 0.0445, "RA_OF_ASC_NODE": 266.2557, "ARG_OF_PERICENTER": 323.0871, "MEAN_ANOMALY": 0.5195, "EPHEMERIS_TYPE": 0, "CLASSIFICATION_TYPE": "U", "NORAD_CAT_ID": 41028, "ELEMENT_SET_NO": 999, "REV_AT_EPOCH": 3693, "BSTAR": 0, "MEAN_MOTION_DOT": -2.44e-06, "MEAN_MOTION_DDOT": 0}, "tle": {"line1": "1 41028U 15065A   25347.15076133 -.00000244  00000+0  00000+0 0  9998", "line2": "2 41028   0.0445 266.2557 0002873 323.0871   0.5195  1.00271881 36936"}}, "geometry": {"type": "Point", "coordinates": [125.96065757102046, -0.019205690527264233]}}, {"type": "Feature", "properties": {"norad_id": 41174, "name": "GSAT0209 (GALILEO 12)", "group": "gnss", "lat": 50.12574655526942, "lon": -128.34752242769775, "alt_km": 23219.834535761685, "timestamp": "2025-12-13T20:38:51.246266+00:00", "meta": {"OBJECT_NAME": "GSAT0209 (GALILEO 12)", "OBJECT_ID": "2015-079A", "EPOCH": "2025-12-10T17:53:22.611840", "MEAN_MOTION": 1.70474458, "ECCENTRICITY": 0.00024095, "INCLINATION": 55.7117, "RA_OF_ASC_NODE": 106.4357, "ARG_OF_PERICENTER": 351.4479, "MEAN_ANOMALY": 8.5179, "EPHEMERIS_TYPE": 0, "CLASSIFICATION_TYPE": "U", "NORAD_CAT_ID": 41174, "ELEMENT_SET_NO": 999, "REV_AT_EPOCH": 6156, "BSTAR": 0, "MEAN_MOTION_DOT": 1.1e-07, "MEAN_MOTION_DDOT": 0}, "tle": {"line1": "1 41174U 15079A   25344.74540060  .00000011  00000+0  00000+0 0  9993", "line2": "2 41174  55.7117 106.4357 0002409 351.4479   8.5179  1.70474458 61567"}}, "geometry": {"type": "Point", "coordinates": [-128.34752242769775, 50.12574655526942]}}, {"type": "Feature", "properties": {"norad_id": 41175, "name": "GSAT0208 (GALILEO 11)", "group": "gnss", "lat": -19.176670509356008, "lon": 92.62063902917548, "alt_km": 23219.625311561154, "timestamp": "2025-12-13T20:38:51.246301+00:00", "meta": {"OBJECT_NAME": "GSAT0208 (GALILEO 11)", "OBJECT_ID": "2015-079B", "EPOCH": "2025-12-12T17:24:26.771040", "MEAN_MOTION": 1.70474307, "ECCENTRICITY": 0.00018806, "INCLINATION": 55.7111, "RA_OF_ASC_NODE": 106.3784, "ARG_OF_PERICENTER": 358.3144, "MEAN_ANOMALY": 1.6545, "EPHEMERIS_TYPE": 0, "CLASSIFICATION_TYPE": "U", "NORAD_CAT_ID": 41175, "ELEMENT_SET_NO": 999, "REV_AT_EPOCH": 6201, "BSTAR": 0, "MEAN_MOTION_DOT": 4e-08, "MEAN_MOTION_DDOT": 0}, "tle": {"line1": "1 41175U 15079B   25346.72530985  .00000004  00000+0  00000+0 0  9991", "line2": "2 41175  55.7111 106.3784 0001880 358.3144   1.6545  1.70474307 62017"}}, "geometry": {"type": "Point", "coordinates": [92.62063902917548, -19.176670509356008]}}, {"type": "Feature", "properties": {"norad_id": 41241, "name": "IRNSS-1E", "group": "gnss", "lat": 32.45778193443913, "lon": 142.50546035018712, "alt_km": 35807.276862382016, "timestamp": "2025-12-13T20:38:51.246316+00:00", "meta": {"OBJECT_NAME": "IRNSS-1E", "OBJECT_ID": "2016-003A", "EPOCH": "2025-12-12T20:06:57.569184", "MEAN_MOTION": 1.00273817, "ECCENTRICITY": 0.00218004, "INCLINATION": 32.8255, "RA_OF_ASC_NODE": 62.4521, "ARG_OF_PERICENTER": 187.6915, "MEAN_ANOMALY": 245.1684, "EPHEMERIS_TYPE": 0, "CLASSIFICATION_TYPE": "U", "NORAD_CAT_ID": 41241, "ELEMENT_SET_NO": 999, "REV_AT_EPOCH": 3621, "BSTAR": 0, "MEAN_MOTION_DOT": -3.05e-06, "MEAN_MOTION_DDOT": 0}, "tle": {"line1": "1 41241U 16003A   25346.83816631 -.00000305  00000+0  00000+0 0  9995", "line2": "2 41241  32.8255  62.4521 0021800 187.6915 245.1684  1.00273817 36218"}}, "geometry": {"type": "Point", "coordinates": [142.50546035018712, 32.45778193443913]}}, {"type": "Feature", "properties": {"norad_id": 41328, "name": "GPS BIIF-12 (PRN 32)", "group": "gnss", "lat": -17.198419419582567, "lon": 84.48434687251536, "alt_km": 20205.85480414871, "timestamp": "2025-12-13T20:38:51.246328+00:00", "meta": {"OBJECT_NAME": "GPS BIIF-12 (PRN 32)", "OBJECT_ID": "2016-007A", "EPOCH": "2025-12-10T21:33:15.579936", "MEAN_MOTION": 2.00560768, "ECCENTRICITY": 0.0092092, "INCLINATION": 55.4051, "RA_OF_ASC_NODE": 96.9301, "ARG_OF_PERICENTER": 243.5329, "MEAN_ANOMALY": 115.5097, "EPHEMERIS_TYPE": 0, "CLASSIFICATION_TYPE": "U", "NORAD_CAT_ID": 41328, "ELEMENT_SET_NO": 999, "REV_AT_EPOCH": 7206, "BSTAR": 0, "MEAN_MOTION_DOT": 1e-08, "MEAN_MOTION_DDOT": 0}, "tle": {"line1": "1 41328U 16007A   25344.89809699  .00000001  00000+0  00000+0 0  9997", "line2": "2 41328  55.4051  96.9301 0092092 243.5329 115.5097  2.00560768 72065"}}, "geometry": {"type": "Point", "coordinates": [84.48434687251536, -17.198419419582567]}}, {"type": "Feature", "properties": {"norad_id": 41330, "name": "COSMOS 2514 (751)", "group": "gnss", "lat": -45.106106332645965, "lon": -68.38147145432225, "alt_km": 19134.47004697859, "timestamp": "2025-12-13T20:38:51.246345+00:00", "meta": {"OBJECT_NAME": "COSMOS 2514 (751)", "OBJECT_ID": "2016-008A", "EPOCH": "2025-12-11T02:40:55.560288", "MEAN_MOTION": 2.13102604, "ECCENTRICITY": 0.0012161, "INCLINATION": 65.1347, "RA_OF_ASC_NODE": 319.4596, "ARG_OF_PERICENTER": 220.0573, "MEAN_ANOMALY": 139.8518, "EPHEMERIS_TYPE": 0, "CLASSIFICATION_TYPE": "U", "NORAD_CAT_ID": 41330, "ELEMENT_SET_NO": 999, "REV_AT_EPOCH": 7661, "BSTAR": 0, "MEAN_MOTION_DOT": -5.2e-07, "MEAN_MOTION_DDOT": 0}, "tle": {"line1": "1 41330U 16008A   25345.11175417 -.00000052  00000+0  00000+0 0  9998", "line2": "2 41330  65.1347 319.4596 0012161 220.0573 139.8518  2.13102604 76610"}}, "geometry": {"type": "Point", "coordinates": [-68.38147145432225, -45.106106332645965]}}, {"type": "Feature", "properties": {"norad_id": 41384, "name": "IRNSS-1F", "group": "gnss", "lat": -2.8639847916393797, "lon": 65.11713011556228, "alt_km": 35862.38183688671, "timestamp": "2025-12-13T20:38:51.246357+00:00", "meta": {"OBJECT_NAME": "IRNSS-1F", "OBJECT_ID": "2016-015A", "EPOCH": "2025-12-12T23:54:19.617696", "MEAN_MOTION": 1.00272664, "ECCENTRICITY": 0.00225591, "INCLINATION": 4.8813, "RA_OF_ASC_NODE": 101.294, "ARG_OF_PERICENTER": 180.7026, "MEAN_ANOMALY": 190.8822, "EPHEMERIS_TYPE": 0, "CLASSIFICATION_TYPE": "U", "NORAD_CAT_ID": 41384, "ELEMENT_SET_NO": 999, "REV_AT_EPOCH": 3580, "BSTAR": 0, "MEAN_MOTION_DOT": 1.71e-06, "MEAN_MOTION_DDOT": 0}, "tle": {"line1": "1 41384U 16015A   25346.99606039  .00000171  00000+0  00000+0 0  9992", "line2": "2 41384   4.8813 101.2940 0022559 180.7026 190.8822  1.00272664 35804"}}, "geometry": {"type": "Point", "coordinates": [65.11713011556228, -2.8639847916393797]}}, {"type": "Feature", "properties": {"norad_id": 41434, "name": "BEIDOU-2 IGSO-6 (C13)", "group": "gnss", "lat": 59.63497901613031, "lon": 120.35541614481156, "alt_km": 35984.0233432343, "timestamp": "2025-12-13T20:38:51.246383+00:00", "meta": {"OBJECT_NAME": "BEIDOU-2 IGSO-6 (C13)", "OBJECT_ID": "2016-021A", "EPOCH": "2025-12-11T15:29:12.615360", "MEAN_MOTION": 1.00293077, "ECCENTRICITY": 0.00608616, "INCLINATION": 59.9644, "RA_OF_ASC_NODE": 39.9082, "ARG_OF_PERICENTER": 229.9753, "MEAN_ANOMALY": 135.9177, "EPHEMERIS_TYPE": 0, "CLASSIFICATION_TYPE": "U", "NORAD_CAT_ID": 41434, "ELEMENT_SET_NO": 999, "REV_AT_EPOCH": 3560, "BSTAR": 0, "MEAN_MOTION_DOT": -1.62e-06, "MEAN_MOTION_DDOT": 0}, "tle": {"line1": "1 41434U 16021A   25345.64528490 -.00000162  00000+0  00000+0 0  9991", "line2": "2 41434  59.9644  39.9082 0060861 229.9753 135.9177  1.00293077 35600"}}, "geometry": {"type": "Point", "coordinates": [120.35541614481156, 59.63497901613031]}}]}